NORAD_CAT_ID,OBJECT_NAME,OBJECT_TYPE,EPOCH,MEAN_MOTION,ECCENTRICITY,INCLINATION,RA_OF_ASC_NODE,ARG_OF_PERICENTER,MEAN_ANOMALY,BSTAR,MEAN_MOTION_DOT,MEAN_MOTION_DDOT,TLE_LINE0,TLE_LINE1,TLE_LINE2,SEMIMAJOR_AXIS,PERIOD,APOGEE,PERIGEE,DECAYED
50166.0,STARLINK-3305,PAYLOAD,2021-12-23 14:00:01,15.98498122,0.0067678,53.2174,341.9016,171.5355,281.4765,-0.0014218,-0.00891644,0.00026577,0 STARLINK-3305,1 50166U 21125L   21357.58334491 -.00891644  26577-3 -14218-2 0  9996,2 50166  53.2174 341.9016 0067678 171.5355 281.4765 15.98498122   997,6656.722,90.085,323.638,233.536,0.0
50166.0,STARLINK-3305,PAYLOAD,2021-12-24 06:00:00,15.97336808,0.0059971,53.2173,338.481,174.4138,155.8395,-0.0016583,-0.00915602,0.0002754,0 STARLINK-3305,1 50166U 21125L   21358.25001157 -.00915602  27540-3 -16583-2 0  9990,2 50166  53.2173 338.4810 0059971 174.4138 155.8395 15.97336808  1105,6659.948,90.15,321.753,241.873,0.0
50166.0,STARLINK-3305,PAYLOAD,2021-12-24 14:00:01,15.96743913,0.0057263,53.2174,336.7718,175.9007,271.9217,-0.0017166,-0.00899023,0.00026483,0 STARLINK-3305,1 50166U 21125L   21358.58334491 -.00899023  26483-3 -17166-2 0  9997,2 50166  53.2174 336.7718 0057263 175.9007 271.9217 15.96743913  1423,6661.597,90.184,321.608,245.315,0.0
50166.0,STARLINK-3305,PAYLOAD,2021-12-24 22:00:00,15.96139512,0.0053963,53.2177,335.0633,177.3073,27.3849,-0.0017368,-0.00860873,0.00024341,0 STARLINK-3305,1 50166U 21125L   21358.91667824 -.00860873  24341-3 -17368-2 0  9999,2 50166  53.2177 335.0633 0053963 177.3073  27.3849 15.96139512  1211,6663.278,90.218,321.1,249.186,0.0
50166.0,STARLINK-3305,PAYLOAD,2021-12-25 06:00:00,15.9557803,0.0050451,53.2176,333.36,179.2645,141.5765,-0.0019416,-0.00913055,0.00026908,0 STARLINK-3305,1 50166U 21125L   21359.25001157 -.00913055  26908-3 -19416-2 0  9996,2 50166  53.2176 333.3600 0050451 179.2645 141.5765 15.95578030  1262,6664.840999999999,90.249,320.331,253.081,0.0
50166.0,STARLINK-3305,PAYLOAD,2021-12-25 14:00:01,15.94990964,0.0048045,53.2173,331.655,181.1109,255.1851,-0.0020242,-0.00909178,0.00026544,0 STARLINK-3305,1 50166U 21125L   21359.58334491 -.00909178  26544-3 -20242-2 0  9998,2 50166  53.2173 331.6550 0048045 181.1109 255.1851 15.94990964  1314,6666.477,90.283,320.371,256.312,0.0
50166.0,STARLINK-3305,PAYLOAD,2021-12-25 22:00:00,15.94384189,0.0044991,53.2175,329.9511,182.0432,9.0108,-0.0020209,-0.00864847,0.00024109,0 STARLINK-3305,1 50166U 21125L   21359.91667824 -.00864847  24109-3 -20209-2 0  9995,2 50166  53.2175 329.9511 0044991 182.0432   9.0108 15.94384189  1371,6668.168000000002,90.317,320.034,260.032,0.0
50166.0,STARLINK-3305,PAYLOAD,2021-12-26 06:00:02,15.93817462,0.0041343,53.2176,328.2521,184.5732,120.5861,-0.0022238,-0.00907173,0.00026128,0 STARLINK-3305,1 50166U 21125L   21360.25002315 -.00907173  26128-3 -22238-2 0  9999,2 50166  53.2176 328.2521 0041343 184.5732 120.5861 15.93817462  1428,6669.748000000001,90.349,319.188,264.039,0.0
50166.0,STARLINK-3305,PAYLOAD,2021-12-26 14:00:01,15.93237405,0.0039305,53.2175,326.5513,186.8443,231.5892,-0.0023427,-0.00918073,0.00026543,0 STARLINK-3305,1 50166U 21125L   21360.58334491 -.00918073  26543-3 -23427-2 0  9991,2 50166  53.2175 326.5513 0039305 186.8443 231.5892 15.93237405  1473,6671.3669999999975,90.382,319.454,267.01,0.0
50166.0,STARLINK-3305,PAYLOAD,2021-12-26 22:00:00,15.92628952,0.0036111999999999,53.2176,324.8521,188.3853,342.6942,-0.0023206,-0.0086999,0.00023945,0 STARLINK-3305,1 50166U 21125L   21360.91667824 -.00869990  23945-3 -23206-2 0  9998,2 50166  53.2176 324.8521 0036112 188.3853 342.6942 15.92628952  1525,6673.066,90.417,319.029,270.833,0.0
50166.0,STARLINK-3305,PAYLOAD,2021-12-27 06:00:00,15.92055415,0.0033024,53.2174,323.1576,191.1372,91.8713,-0.0024965,-0.00898033,0.00025212,0 STARLINK-3305,1 50166U 21125L   21361.25001157 -.00898033  25212-3 -24965-2 0  9999,2 50166  53.2174 323.1576 0033024 191.1372  91.8713 15.92055415  1585,6674.669,90.449,318.576,274.491,0.0
50166.0,STARLINK-3305,PAYLOAD,2021-12-27 14:00:01,15.91482558,0.0030822,53.2175,321.461,193.87,200.3646,-0.0026667,-0.00924118,0.00026402,0 STARLINK-3305,1 50166U 21125L   21361.58334491 -.00924118  26402-3 -26667-2 0  9992,2 50166  53.2175 321.4610 0030822 193.8700 200.3646 15.91482558  1632,6676.27,90.482,318.713,277.558,0.0
50166.0,STARLINK-3305,PAYLOAD,2021-12-27 22:00:00,15.90876677,0.0027913,53.2178,319.7662,196.2222,308.5455,-0.002646,-0.00881553,0.00024107,0 STARLINK-3305,1 50166U 21125L   21361.91667824 -.00881553  24107-3 -26460-2 0  9994,2 50166  53.2178 319.7662 0027913 196.2222 308.5455 15.90876677  1687,6677.965,90.516,318.471,281.19,0.0
50166.0,STARLINK-3305,PAYLOAD,2021-12-28 06:00:00,15.90292604,0.0025016,53.2177,318.0761,199.6127,54.9753,-0.0027641,-0.0088703999999999,0.00024242,0 STARLINK-3305,1 50166U 21125L   21362.25001157 -.00887040  24242-3 -27641-2 0  9992,2 50166  53.2177 318.0761 0025016 199.6127  54.9753 15.90292604  1743,6679.6,90.549,318.175,284.756,0.0
50166.0,STARLINK-3305,PAYLOAD,2021-12-28 14:00:01,15.89724748,0.002303,53.2174,316.3837,202.9822,160.7181,-0.0029789,-0.00924093,0.00025959,0 STARLINK-3305,1 50166U 21125L   21362.58334491 -.00924093  25959-3 -29789-2 0  9999,2 50166  53.2174 316.3837 0023030 202.9822 160.7181 15.89724748  2063,6681.191,90.582,318.443,287.6690000000001,0.0
50166.0,STARLINK-3305,PAYLOAD,2021-12-28 22:00:00,15.89126514,0.002012,53.2175,314.6935,206.6243,265.4943,-0.0029993,-0.00897643,0.00024494,0 STARLINK-3305,1 50166U 21125L   21362.91667824 -.00897643  24494-3 -29993-2 0  9995,2 50166  53.2175 314.6935 0020120 206.6243 265.4943 15.89126514  1840,6682.868,90.616,318.1790000000001,291.2870000000001,0.0
50166.0,STARLINK-3305,PAYLOAD,2021-12-29 06:00:02,15.88531181,0.0017402,53.2176,313.0075,212.3294,7.5673,-0.0030393,-0.00878863,0.00023446,0 STARLINK-3305,1 50166U 21125L   21363.25002315 -.00878863  23446-3 -30393-2 0  9996,2 50166  53.2176 313.0075 0017402 212.3294   7.5673 15.88531181  1909,6684.5369999999975,90.65,318.035,294.77,0.0
50166.0,STARLINK-3305,PAYLOAD,2021-12-29 14:00:01,15.8796339,0.001569,53.2176,311.3192,218.496,108.401,-0.0032695,-0.00916313,0.00025146,0 STARLINK-3305,1 50166U 21125L   21363.58335648 -.00916313  25146-3 -32695-2 0  9999,2 50166  53.2176 311.3192 0015690 218.4960 108.4010 15.87963390  1955,6686.130999999999,90.682,318.486,297.505,0.0
50166.0,STARLINK-3305,PAYLOAD,2021-12-29 21:41:33,15.87795904,0.0016579,53.2203,309.7008,221.3999,138.5772,-0.0012354,-0.00346783,4.7849e-05,0 STARLINK-3305,1 50166U 21125L   21363.90386325 -.00346783  47849-4 -12354-2 0  9996,2 50166  53.2203 309.7008 0016579 221.3999 138.5772 15.87795904  5097,6686.601,90.692,319.551,297.38,0.0
50166.0,STARLINK-3305,PAYLOAD,2021-12-29 22:00:00,15.87377955,0.0013419,53.2176,309.6339,226.0889,207.0434,-0.0033766,-0.00838225,0.0,0 STARLINK-3305,1 50166U 21125L   21363.91667824 -.00838225  00000-0 -33766-2 0  9994,2 50166  53.2176 309.6339 0013419 226.0889 207.0434 15.87377955  2009,6687.774,90.716,318.6140000000001,300.665,0.0
50166.0,STARLINK-3305,PAYLOAD,2021-12-30 06:00:00,15.86689875,0.0011449,53.218,307.9525,236.9853,301.7903,-0.0028303,-0.00688335,0.0,0 STARLINK-3305,1 50166U 21125L   21364.25001157 -.00688335  00000-0 -28303-2 0  9999,2 50166  53.2180 307.9525 0011449 236.9853 301.7903 15.86689875  2069,6689.708000000001,90.755,319.232,303.914,0.0
50166.0,STARLINK-3305,PAYLOAD,2021-12-30 14:00:01,15.86068563,0.0009821,53.2181,306.2686,250.7134,32.9788,-0.002738,-0.00647486,0.0,0 STARLINK-3305,1 50166U 21125L   21364.58334491 -.00647486  00000-0 -27380-2 0  9991,2 50166  53.2181 306.2686 0009821 250.7134  32.9788 15.86068563  2381,6691.455,90.791,319.891,306.748,0.0
50166.0,STARLINK-3305,PAYLOAD,2021-12-30 20:22:09,15.86233947,0.0010991,53.2204,304.9323,247.0327,112.9539,-0.0011395,-0.00283373,0.0,0 STARLINK-3305,1 50166U 21125L   21364.84872384 -.00283373  00000-0 -11395-2 0  9998,2 50166  53.2204 304.9323 0010991 247.0327 112.9539 15.86233947  5244,6690.989000000001,90.781,320.209,305.5,0.0
50166.0,STARLINK-3305,PAYLOAD,2021-12-30 22:00:01,15.85622404,0.0008794,53.2178,304.5872,261.7104,126.1676,-0.0037133,-0.00839982,0.0,0 STARLINK-3305,1 50166U 21125L   21364.91668981 -.00839982  00000-0 -37133-2 0  9993,2 50166  53.2178 304.5872 0008794 261.7104 126.1676 15.85622404  2169,6692.71,90.816,320.46,308.689,0.0
50166.0,STARLINK-3305,PAYLOAD,2021-12-31 14:00:01,15.84437139,0.000456,53.2175,301.2299,268.7898,325.2935,-0.0038213,-0.00815291,0.0,0 STARLINK-3305,1 50166U 21125L   21365.58334491 -.00815291  00000-0 -38213-2 0  9990,2 50166  53.2175 301.2299 0004560 268.7898 325.2935 15.84437139  2547,6696.047,90.884,320.965,314.8590000000001,0.0
50166.0,STARLINK-3305,PAYLOAD,2021-12-31 20:34:55,15.84962807,0.0008842,53.2207,299.8523,269.9096,90.0916,-9.1536e-05,-0.00022683,0.0,0 STARLINK-3305,1 50166U 21125L   21365.85758116 -.00022683  00000-0 -91536-4 0  9998,2 50166  53.2207 299.8523 0008842 269.9096  90.0916 15.84962807  5404,6694.566,90.854,322.351,310.512,0.0
50166.0,STARLINK-3305,PAYLOAD,2022-01-01 06:00:00,15.83272666,1.9e-05,53.2174,297.8804,233.5063,204.0243,-0.0041123,-0.00826769,0.0,0 STARLINK-3305,1 50166U 21125L   22001.25001157 -.00826769  00000-0 -41123-2 0  9998,2 50166  53.2174 297.8804 0000190 233.5063 204.0243 15.83272666  2375,6699.33,90.951,321.322,321.068,0.0
50166.0,STARLINK-3305,PAYLOAD,2022-01-01 14:00:01,15.82686249,9.96e-05,53.2177,296.2047,102.7681,75.4989,-0.0042192,-0.0082532999999999,0.0,0 STARLINK-3305,1 50166U 21125L   22001.58335648 -.00825330  00000-0 -42192-2 0  9999,2 50166  53.2177 296.2047 0000996 102.7681  75.4989 15.82686249  2717,6700.985,90.985,323.517,322.182,0.0
50166.0,STARLINK-3305,PAYLOAD,2022-01-01 22:00:00,15.82103518,0.0001095999999999,53.2179,294.5331,85.4446,192.7198,-0.0043647,-0.00830171,0.0,0 STARLINK-3305,1 50166U 21125L   22001.91667824 -.00830171  00000-0 -43647-2 0  9995,2 50166  53.2179 294.5331 0001096  85.4446 192.7198 15.82103518  2767,6702.63,91.018,325.23,323.76,0.0
